{
"type": "FeatureCollection",
"generator": "overpass-turbo",
"copyright": "The data included in this document is from www.openstreetmap.org. The data is made available under ODbL.",
"timestamp": "2023-11-14T18:22:15Z",
"name": "comerciales",
"features": [
{ "type": "Feature", "id": "way/62155065", "properties": { "@id": "way/62155065", "addr:city": "Liberia", "addr:street": "Carretera Interamericana Norte", "name": "Plaza Santa Rosa", "shop": "mall" }, "geometry": { "type": "Polygon", "coordinates": [ [ [ -85.4431835, 10.6254125 ], [ -85.4435846, 10.6260592 ], [ -85.443953, 10.6258849 ], [ -85.4441919, 10.6263763 ], [ -85.4452717, 10.6259108 ], [ -85.4447072, 10.6248431 ], [ -85.4436485, 10.6253872 ], [ -85.4436413, 10.6251465 ], [ -85.4431835, 10.6254125 ] ] ] } },
{ "type": "Feature", "id": "way/100583610", "properties": { "@id": "way/100583610", "addr:city": "Liberia", "addr:street": "Ruta Nacional 21", "aeroway": "aerodrome", "iata": "LIR", "icao": "MRLB", "int_name": "Daniel Oduber Quirós International Airport", "internet_access:fee": "no", "name": "Aeropuerto Internacional Daniel Oduber Quirós", "operator": "Dirección General de Aviación Civil", "ref": "07/25", "wikidata": "Q1708765" }, "geometry": { "type": "Polygon", "coordinates": [ [ [ -85.5617775, 10.5894016 ], [ -85.5601596, 10.5849491 ], [ -85.5548823, 10.5867723 ], [ -85.5495286, 10.5887036 ], [ -85.5495058, 10.588751 ], [ -85.5493676, 10.5888011 ], [ -85.5493261, 10.5887695 ], [ -85.5376306, 10.5929689 ], [ -85.5282707, 10.5963297 ], [ -85.5298214, 10.6006271 ], [ -85.5299686, 10.6010529 ], [ -85.5301035, 10.601318 ], [ -85.5302725, 10.6015816 ], [ -85.530459, 10.6017986 ], [ -85.5305047, 10.6017564 ], [ -85.5308562, 10.6020437 ], [ -85.5308732, 10.6020699 ], [ -85.5309014, 10.6020883 ], [ -85.5311957, 10.6022103 ], [ -85.531159, 10.6023055 ], [ -85.5316346, 10.6024792 ], [ -85.5316643, 10.6023939 ], [ -85.5318252, 10.6024547 ], [ -85.5320652, 10.6025213 ], [ -85.5322946, 10.6025372 ], [ -85.5325215, 10.602534 ], [ -85.5327644, 10.602506 ], [ -85.5330139, 10.6024636 ], [ -85.5333289, 10.6023692 ], [ -85.5332793, 10.6022451 ], [ -85.5331185, 10.6023054 ], [ -85.5330572, 10.6021467 ], [ -85.5332306, 10.602087 ], [ -85.5329707, 10.6012872 ], [ -85.5343169, 10.6008232 ], [ -85.5343304, 10.6008577 ], [ -85.5348196, 10.6007012 ], [ -85.5348543, 10.6008058 ], [ -85.5348586, 10.6008049 ], [ -85.5349534, 10.6010585 ], [ -85.5350411, 10.6010269 ], [ -85.5352091, 10.6014768 ], [ -85.5369507, 10.6008485 ], [ -85.536736, 10.6002736 ], [ -85.5368313, 10.6002383 ], [ -85.5368424, 10.6002658 ], [ -85.5369417, 10.6002273 ], [ -85.5369803, 10.6003392 ], [ -85.537446, 10.6001811 ], [ -85.5374926, 10.6003102 ], [ -85.5377726, 10.6002197 ], [ -85.537708, 10.600034 ], [ -85.5378453, 10.5999878 ], [ -85.5378739, 10.6000679 ], [ -85.538896, 10.5997035 ], [ -85.538904, 10.5997215 ], [ -85.5389765, 10.5997253 ], [ -85.539047, 10.599746 ], [ -85.5391148, 10.5998011 ], [ -85.5391695, 10.5998774 ], [ -85.5392404, 10.6000292 ], [ -85.5393377, 10.6000006 ], [ -85.5393709, 10.6000789 ], [ -85.5392786, 10.6001097 ], [ -85.5393163, 10.6003052 ], [ -85.5393018, 10.600408 ], [ -85.5392453, 10.6005002 ], [ -85.5391647, 10.6005645 ], [ -85.5339521, 10.6024477 ], [ -85.5348822, 10.6037708 ], [ -85.5349598, 10.603807 ], [ -85.535039, 10.6038123 ], [ -85.5399457, 10.6020217 ], [ -85.5425774, 10.6010726 ], [ -85.5410143, 10.5968084 ], [ -85.5460458, 10.5950457 ], [ -85.5617775, 10.5894016 ] ] ] } },
{ "type": "Feature", "id": "way/106705208", "properties": { "@id": "way/106705208", "addr:city": "Liberia", "addr:street": "Avenida 9", "building": "yes", "name": "MaxiPali Liberia #3905", "shop": "supermarket", "source": "KG Ground Survey 2015" }, "geometry": { "type": "Polygon", "coordinates": [ [ [ -85.4428463, 10.6316894 ], [ -85.4431229, 10.6315651 ], [ -85.4430958, 10.6315068 ], [ -85.4432706, 10.6314282 ], [ -85.4430962, 10.6310534 ], [ -85.4426239, 10.6312656 ], [ -85.4427661, 10.6315713 ], [ -85.442787, 10.631562 ], [ -85.4428463, 10.6316894 ] ] ] } },
{ "type": "Feature", "id": "way/106710871", "properties": { "@id": "way/106710871", "addr:city": "Liberia", "addr:street": "Carretera Interamericana Norte", "building": "yes", "name": "Plaza Liberia", "shop": "mall" }, "geometry": { "type": "Polygon", "coordinates": [ [ [ -85.4370088, 10.6178995 ], [ -85.4366473, 10.6181309 ], [ -85.4370125, 10.6186654 ], [ -85.4370601, 10.6186345 ], [ -85.4371578, 10.618659 ], [ -85.4372807, 10.6185817 ], [ -85.4373027, 10.618483 ], [ -85.4373619, 10.618443 ], [ -85.4374319, 10.6185449 ], [ -85.4374847, 10.6185132 ], [ -85.4374749, 10.6184963 ], [ -85.4375157, 10.6184722 ], [ -85.4374845, 10.6184299 ], [ -85.4374707, 10.6184349 ], [ -85.4374111, 10.6183969 ], [ -85.4374014, 10.6184 ], [ -85.4373525, 10.6183225 ], [ -85.4373607, 10.6183179 ], [ -85.4373483, 10.6182664 ], [ -85.4373281, 10.6182755 ], [ -85.4373178, 10.6182576 ], [ -85.4373556, 10.6182333 ], [ -85.437327, 10.6181861 ], [ -85.4372392, 10.6182386 ], [ -85.4371825, 10.618148 ], [ -85.4372089, 10.6181319 ], [ -85.4371451, 10.6180396 ], [ -85.4371168, 10.6180588 ], [ -85.4370088, 10.6178995 ] ] ] } },
{ "type": "Feature", "id": "way/106817025", "properties": { "@id": "way/106817025", "addr:city": "Liberia", "name": "Hotel El Sitio", "operator": "Best Western", "tourism": "hotel" }, "geometry": { "type": "Polygon", "coordinates": [ [ [ -85.4457277, 10.6254973 ], [ -85.4461282, 10.6251746 ], [ -85.4469261, 10.6249461 ], [ -85.4464994, 10.6239983 ], [ -85.4452492, 10.6245463 ], [ -85.4456907, 10.6254886 ], [ -85.4457277, 10.6254973 ] ] ] } },
{ "type": "Feature", "id": "way/106880032", "properties": { "@id": "way/106880032", "addr:city": "Liberia", "addr:street": "Avenida 25 de Julio", "building": "yes", "name": "Super Compro #1", "shop": "supermarket" }, "geometry": { "type": "Polygon", "coordinates": [ [ [ -85.4392336, 10.6294346 ], [ -85.4394688, 10.6293268 ], [ -85.439292, 10.6289541 ], [ -85.4390126, 10.6290847 ], [ -85.4391434, 10.6293526 ], [ -85.4391664, 10.6294009 ], [ -85.4392085, 10.6293816 ], [ -85.4392336, 10.6294346 ] ] ] } },
{ "type": "Feature", "id": "way/106942899", "properties": { "@id": "way/106942899", "addr:city": "Liberia", "addr:street": "Avenida 5", "building": "yes", "name": "Mega Super", "shop": "supermarket", "source": "KG Ground Survey 2015" }, "geometry": { "type": "Polygon", "coordinates": [ [ [ -85.4381916, 10.6318017 ], [ -85.4383254, 10.6317414 ], [ -85.4384431, 10.631691 ], [ -85.438391, 10.6315912 ], [ -85.4385502, 10.631511 ], [ -85.4384901, 10.6313803 ], [ -85.4379141, 10.6316388 ], [ -85.437989, 10.631795 ], [ -85.438096, 10.6317487 ], [ -85.4381314, 10.6318277 ], [ -85.4381916, 10.6318017 ] ] ] } },
{ "type": "Feature", "id": "way/319761472", "properties": { "@id": "way/319761472", "addr:city": "Liberia", "addr:street": "Carretera Interamericana", "name": "Hotel Boyeros", "source": "KG Ground Survey 2015", "tourism": "hotel" }, "geometry": { "type": "Polygon", "coordinates": [ [ [ -85.4430575, 10.6259828 ], [ -85.4426386, 10.6253371 ], [ -85.4418075, 10.6257253 ], [ -85.4421321, 10.6264397 ], [ -85.4430575, 10.6259828 ] ] ] } },
{ "type": "Feature", "id": "way/379944340", "properties": { "@id": "way/379944340", "addr:city": "Liberia", "addr:street": "Avenida 5", "building": "yes", "name": "Importadora Monge Liberia", "shop": "appliance", "shop_1": "hifi", "source": "KG Ground Survey 2015" }, "geometry": { "type": "Polygon", "coordinates": [ [ [ -85.4385188, 10.6318363 ], [ -85.438678, 10.6317561 ], [ -85.4385502, 10.631511 ], [ -85.438391, 10.6315912 ], [ -85.4384431, 10.631691 ], [ -85.4385188, 10.6318363 ] ] ] } },
{ "type": "Feature", "id": "way/379966371", "properties": { "@id": "way/379966371", "addr:city": "Liberia", "addr:street": "Calle 8", "building": "yes", "name": "Toys", "shop": "toys", "source": "KG Ground Survey 2015" }, "geometry": { "type": "Polygon", "coordinates": [ [ [ -85.4426355, 10.6308822 ], [ -85.442551, 10.6306966 ], [ -85.4422153, 10.6308582 ], [ -85.4422786, 10.6309856 ], [ -85.4423333, 10.6310114 ], [ -85.4426355, 10.6308822 ] ] ] } },
{ "type": "Feature", "id": "way/379968390", "properties": { "@id": "way/379968390", "addr:city": "Liberia", "addr:street": "Avenida 5", "amenity": "bus_station", "building": "yes", "name": "Pulmitan de Liberia", "source": "KG Ground Survey 2015" }, "geometry": { "type": "Polygon", "coordinates": [ [ [ -85.4429288, 10.6297446 ], [ -85.4431216, 10.62968 ], [ -85.4431727, 10.6296629 ], [ -85.4430995, 10.6294703 ], [ -85.4428842, 10.6289896 ], [ -85.4428368, 10.6290081 ], [ -85.4428005, 10.6290216 ], [ -85.4428938, 10.6292519 ], [ -85.4427406, 10.6293193 ], [ -85.4429288, 10.6297446 ] ] ] } },
{ "type": "Feature", "id": "way/379983234", "properties": { "@id": "way/379983234", "addr:city": "Liberia", "addr:street": "Avenida 25 de Julio", "amenity": "fast_food", "brand": "McDonald's", "brand:wikidata": "Q38076", "brand:wikipedia": "en:McDonald's", "building": "yes", "cuisine": "burger", "name": "McDonald's", "opening_hours": "Su,Mo-We 08:00-23:00; Th-Sa 08:00-02:00", "payment:american_express": "yes", "payment:cash": "yes", "payment:mastercard": "yes", "payment:visa": "yes", "phone": "905 286 0101", "source": "KG Ground Survey 2015", "takeaway": "yes", "Juego": "juego" }, "geometry": { "type": "Polygon", "coordinates": [ [ [ -85.4433728, 10.6274462 ], [ -85.4436586, 10.6272142 ], [ -85.4435398, 10.6270962 ], [ -85.4432684, 10.6273281 ], [ -85.4433728, 10.6274462 ] ] ] } },
{ "type": "Feature", "id": "way/379992888", "properties": { "@id": "way/379992888", "addr:city": "Liberia", "addr:full": "Frente al Hotel El Sitio. Liberia Guanacaste", "amenity": "fast_food", "brand": "Subway", "brand:wikidata": "Q244457", "brand:wikipedia": "en:Subway (restaurant)", "building": "yes", "cuisine": "sandwich", "name": "Subway", "opening_hours": "Mo-Th 07:00-23:00; Fr 07:00-24:00; Sa 00:00-24:00; Su 00:00-22:00", "phone": "2665 3671", "source": "KG Ground Survey 2015", "takeaway": "yes" }, "geometry": { "type": "Polygon", "coordinates": [ [ [ -85.4459234, 10.6258635 ], [ -85.4460305, 10.6261151 ], [ -85.4460894, 10.6260914 ], [ -85.4459836, 10.6258412 ], [ -85.4459234, 10.6258635 ] ] ] } },
{ "type": "Feature", "id": "way/380828459", "properties": { "@id": "way/380828459", "addr:city": "Liberia", "addr:street": "Avenida 1", "building": "yes", "name": "Pops", "shop": "ice_cream", "source": "KG Ground Survey 2015", "Juego": null }, "geometry": { "type": "Polygon", "coordinates": [ [ [ -85.4370865, 10.6307042 ], [ -85.4371859, 10.6309159 ], [ -85.4372231, 10.6308987 ], [ -85.4371539, 10.6307522 ], [ -85.4371348, 10.6307112 ], [ -85.4371223, 10.6306853 ], [ -85.4370865, 10.6307042 ] ] ] } },
{ "type": "Feature", "id": "way/380828468", "properties": { "@id": "way/380828468", "addr:city": "Liberia", "addr:street": "Avenida 1", "building": "commercial", "name": "Bolbaldi Plaza", "source": "KG Ground Survey 2015" }, "geometry": { "type": "Polygon", "coordinates": [ [ [ -85.4390342, 10.629651 ], [ -85.4391023, 10.6296196 ], [ -85.4390275, 10.629463 ], [ -85.4390946, 10.629432 ], [ -85.439179, 10.6296088 ], [ -85.439302, 10.6295521 ], [ -85.4392085, 10.6293816 ], [ -85.4391664, 10.6294009 ], [ -85.4391434, 10.6293526 ], [ -85.4389372, 10.6294477 ], [ -85.4390342, 10.629651 ] ] ] } },
{ "type": "Feature", "id": "way/380845130", "properties": { "@id": "way/380845130", "addr:city": "Liberia", "addr:street": "Avenida 3", "branch": "Liberia #3065", "brand": "Palí", "brand:wikidata": "Q1064887", "building": "yes", "name": "Palí", "shop": "supermarket", "source": "KG Ground Survey 2015" }, "geometry": { "type": "Polygon", "coordinates": [ [ [ -85.4391322, 10.6311865 ], [ -85.4390379, 10.6309745 ], [ -85.4390075, 10.6309051 ], [ -85.4389866, 10.6308477 ], [ -85.4389804, 10.630835 ], [ -85.4389725, 10.6308187 ], [ -85.4387593, 10.6309111 ], [ -85.4386272, 10.6309679 ], [ -85.4386719, 10.6310699 ], [ -85.4387212, 10.6311846 ], [ -85.4388466, 10.6311334 ], [ -85.4388809, 10.6312104 ], [ -85.4389123, 10.631281 ], [ -85.4389845, 10.63125 ], [ -85.4391322, 10.6311865 ] ] ] } },
{ "type": "Feature", "id": "way/380861790", "properties": { "@id": "way/380861790", "addr:city": "Liberia", "addr:street": "Avenida 25 de Julio", "amenity": "pharmacy", "building": "yes", "name": "Farmacia Lux", "source": "KG Ground Survey 2015" }, "geometry": { "type": "Polygon", "coordinates": [ [ [ -85.4390222, 10.6288247 ], [ -85.4391803, 10.628757 ], [ -85.4391072, 10.6285952 ], [ -85.4390789, 10.6286076 ], [ -85.4389496, 10.6286655 ], [ -85.4390026, 10.6287796 ], [ -85.4390222, 10.6288247 ] ] ] } },
{ "type": "Feature", "id": "way/380861809", "properties": { "@id": "way/380861809", "addr:city": "Liberia", "addr:street": "Calle 4", "amenity": "restaurant", "building": "yes", "name": "Fusión Latina", "source": "KG Ground Survey 2015" }, "geometry": { "type": "Polygon", "coordinates": [ [ [ -85.4389158, 10.6279195 ], [ -85.4389909, 10.6278857 ], [ -85.4389381, 10.6277729 ], [ -85.438863, 10.6278067 ], [ -85.4389158, 10.6279195 ] ] ] } },
{ "type": "Feature", "id": "way/380870271", "properties": { "@id": "way/380870271", "addr:city": "Liberia", "addr:street": "Avenida 25 de Julio", "amenity": "restaurant", "building": "yes", "cuisine": "pizza;local;pasta", "name": "Jauja", "source": "KG Ground Survey 2015" }, "geometry": { "type": "Polygon", "coordinates": [ [ [ -85.4415785, 10.6275837 ], [ -85.4415304, 10.6274655 ], [ -85.4414717, 10.6274883 ], [ -85.4415196, 10.6276068 ], [ -85.4415785, 10.6275837 ] ] ] } },
{ "type": "Feature", "id": "way/380870283", "properties": { "@id": "way/380870283", "addr:city": "Liberia", "addr:street": "Avenida 25 de Julio", "building": "yes", "name": "eKono", "shop": "department_store", "source": "KG Ground Survey 2015" }, "geometry": { "type": "Polygon", "coordinates": [ [ [ -85.4407628, 10.6279542 ], [ -85.4406094, 10.6276395 ], [ -85.4403031, 10.6277838 ], [ -85.4403429, 10.6278654 ], [ -85.4402949, 10.627888 ], [ -85.4403124, 10.627929 ], [ -85.4403896, 10.6280826 ], [ -85.4404085, 10.6281211 ], [ -85.4407628, 10.6279542 ] ] ] } },
{ "type": "Feature", "id": "way/380870287", "properties": { "@id": "way/380870287", "addr:city": "Liberia", "addr:street": "Avenida 25 de Julio", "amenity": "fast_food", "building": "yes", "cuisine": "pizza", "name": "Pizza Hut", "opening_hours": "Mo-Th 11:00-22:00; Fr-Sa 11:00-23:00", "phone": "2290-9595", "source": "KG Ground Survey 2015" }, "geometry": { "type": "Polygon", "coordinates": [ [ [ -85.4398767, 10.6284123 ], [ -85.4399762, 10.628363 ], [ -85.4399177, 10.628249 ], [ -85.4398182, 10.6282983 ], [ -85.4398767, 10.6284123 ] ] ] } },
{ "type": "Feature", "id": "way/380875488", "properties": { "@id": "way/380875488", "addr:city": "Liberia", "addr:street": "Avenida 25 de Julio", "building": "yes", "name": "Monge", "shop": "department_store", "source": "KG Ground Survey 2015" }, "geometry": { "type": "Polygon", "coordinates": [ [ [ -85.4389025, 10.6288742 ], [ -85.4388528, 10.628761 ], [ -85.4387553, 10.6285391 ], [ -85.4386325, 10.6285912 ], [ -85.4387332, 10.6288173 ], [ -85.4387798, 10.6289264 ], [ -85.4389025, 10.6288742 ] ] ] } },
{ "type": "Feature", "id": "way/380876481", "properties": { "@id": "way/380876481", "addr:city": "Liberia", "addr:street": "Avenida 25 de Julio", "building": "yes", "name": "Claro", "shop": "mobile_phone", "source": "KG Ground Survey 2015" }, "geometry": { "type": "Polygon", "coordinates": [ [ [ -85.4360042, 10.630412 ], [ -85.4359755, 10.6303518 ], [ -85.4358833, 10.6303985 ], [ -85.4359118, 10.6304562 ], [ -85.4360042, 10.630412 ] ] ] } },
{ "type": "Feature", "id": "way/380878177", "properties": { "@id": "way/380878177", "addr:city": "Liberia", "addr:street": "Avenida 25 de Julio", "amenity": "restaurant", "building": "yes", "cuisine": "chinese", "name": "Hong Kong", "source": "KG Ground Survey 2015" }, "geometry": { "type": "Polygon", "coordinates": [ [ [ -85.4350981, 10.6308166 ], [ -85.4351909, 10.6310051 ], [ -85.4352641, 10.6309704 ], [ -85.4351712, 10.6307818 ], [ -85.4350981, 10.6308166 ] ] ] } },
{ "type": "Feature", "id": "way/390851644", "properties": { "@id": "way/390851644", "addr:city": "Liberia", "addr:street": "Avenida 25 de Julio", "amenity": "fast_food", "atm": "yes", "brand": "Taco Bell", "brand:wikidata": "Q752941", "brand:wikipedia": "en:Taco Bell", "building": "yes", "cuisine": "tex-mex", "delivery": "yes", "drive_through": "yes", "name": "Taco Bell", "outdoor_seating": "no", "source": "KG Ground Survey 2015", "takeaway": "yes" }, "geometry": { "type": "Polygon", "coordinates": [ [ [ -85.4433039, 10.6265411 ], [ -85.4432216, 10.6265928 ], [ -85.4432488, 10.6266346 ], [ -85.4431377, 10.6267045 ], [ -85.4431576, 10.6267351 ], [ -85.4431311, 10.6267518 ], [ -85.4431515, 10.6267831 ], [ -85.4431794, 10.6267655 ], [ -85.4432072, 10.6268082 ], [ -85.4432585, 10.6267759 ], [ -85.4432717, 10.6267962 ], [ -85.4434124, 10.6267076 ], [ -85.4433039, 10.6265411 ] ] ] } },
{ "type": "Feature", "id": "way/390851647", "properties": { "@id": "way/390851647", "addr:city": "Liberia", "addr:street": "Avenida 25 de Julio", "building": "yes", "name": "M Express", "shop": "furniture", "source": "KG Ground Survey 2015" }, "geometry": { "type": "Polygon", "coordinates": [ [ [ -85.4394447, 10.6286103 ], [ -85.439354, 10.628408 ], [ -85.4392768, 10.6284414 ], [ -85.4393675, 10.6286438 ], [ -85.4394447, 10.6286103 ] ] ] } },
{ "type": "Feature", "id": "way/390855007", "properties": { "@id": "way/390855007", "addr:city": "Liberia", "addr:street": "Avenida 2 - Francisco Mayorga Rivas", "amenity": "restaurant", "building": "yes", "name": "Restaurante La Copa De Oro", "source": "KG Ground Survey 2015" }, "geometry": { "type": "Polygon", "coordinates": [ [ [ -85.4375914, 10.6285815 ], [ -85.4374158, 10.6286589 ], [ -85.4374593, 10.6287543 ], [ -85.437635, 10.6286769 ], [ -85.4375914, 10.6285815 ] ] ] } },
{ "type": "Feature", "id": "way/390899289", "properties": { "@id": "way/390899289", "addr:city": "Liberia", "addr:street": "Avenida 5", "building": "yes", "name": "Mayca", "shop": "supermarket", "source": "KG Ground Survey 2015" }, "geometry": { "type": "Polygon", "coordinates": [ [ [ -85.4445885, 10.6288218 ], [ -85.4445157, 10.6286699 ], [ -85.4442353, 10.6287997 ], [ -85.4443081, 10.6289516 ], [ -85.4445885, 10.6288218 ] ] ] } },
{ "type": "Feature", "id": "way/390899306", "properties": { "@id": "way/390899306", "addr:city": "Liberia", "addr:street": "Avenida 5", "building": "yes", "name": "Barbería Imagen", "shop": "hairdresser", "source": "KG Ground Survey 2015" }, "geometry": { "type": "Polygon", "coordinates": [ [ [ -85.4375998, 10.6323483 ], [ -85.437577, 10.6323582 ], [ -85.4376168, 10.6324464 ], [ -85.4376396, 10.6324364 ], [ -85.4375998, 10.6323483 ] ] ] } },
{ "type": "Feature", "id": "way/390906222", "properties": { "@id": "way/390906222", "addr:city": "Liberia", "addr:street": "Avenida 11", "building": "yes", "name": "La Casa del Plastico", "shop": "yes", "source": "KG Ground Survey 2015" }, "geometry": { "type": "Polygon", "coordinates": [ [ [ -85.441844, 10.6331132 ], [ -85.4418038, 10.6330287 ], [ -85.4416692, 10.6330906 ], [ -85.4417094, 10.6331751 ], [ -85.441844, 10.6331132 ] ] ] } },
{ "type": "Feature", "id": "way/390913768", "properties": { "@id": "way/390913768", "addr:city": "Liberia", "addr:street": "Calle 12", "amenity": "veterinary", "building": "yes", "name": "Guanavet", "source": "KG Ground Survey 2015" }, "geometry": { "type": "Polygon", "coordinates": [ [ [ -85.4443489, 10.6319353 ], [ -85.444201, 10.6316233 ], [ -85.444, 10.6317153 ], [ -85.4441479, 10.6320273 ], [ -85.4443489, 10.6319353 ] ] ] } },
{ "type": "Feature", "id": "way/445985964", "properties": { "@id": "way/445985964", "addr:city": "Liberia", "name": "Ponderosa Adventure Park", "phone": "22881000", "tourism": "zoo", "website": "https://ponderosaadventurepark.com/" }, "geometry": { "type": "Polygon", "coordinates": [ [ [ -85.3992861, 10.5650829 ], [ -85.4019751, 10.563121 ], [ -85.4013072, 10.5624049 ], [ -85.4013269, 10.5624088 ], [ -85.4024981, 10.5621939 ], [ -85.4033778, 10.5620041 ], [ -85.4041503, 10.5612025 ], [ -85.4044293, 10.5602955 ], [ -85.4052661, 10.5591564 ], [ -85.4062103, 10.5570258 ], [ -85.40606, 10.5553383 ], [ -85.4047511, 10.5535241 ], [ -85.404558, 10.5518998 ], [ -85.4043434, 10.5507818 ], [ -85.4038499, 10.5498958 ], [ -85.4021118, 10.5490309 ], [ -85.3995369, 10.5493263 ], [ -85.3991033, 10.5490041 ], [ -85.3989325, 10.5484885 ], [ -85.3991721, 10.5471957 ], [ -85.3995798, 10.5448119 ], [ -85.4008029, 10.5431243 ], [ -85.4008673, 10.5420695 ], [ -85.3993223, 10.5414999 ], [ -85.3989576, 10.540846 ], [ -85.3991936, 10.5402131 ], [ -85.3993653, 10.5395591 ], [ -85.3999446, 10.5384833 ], [ -85.4004167, 10.5375128 ], [ -85.4004381, 10.5360783 ], [ -85.3999875, 10.5351501 ], [ -85.3994082, 10.5344961 ], [ -85.398979, 10.534475 ], [ -85.3985284, 10.534686 ], [ -85.3988288, 10.5358885 ], [ -85.3993009, 10.5368378 ], [ -85.3989576, 10.537766 ], [ -85.3980563, 10.5386942 ], [ -85.3976486, 10.5399178 ], [ -85.3976701, 10.540846 ], [ -85.3984426, 10.5421539 ], [ -85.3993438, 10.5427657 ], [ -85.3987644, 10.5442001 ], [ -85.3977774, 10.5460354 ], [ -85.3970478, 10.5476387 ], [ -85.3963826, 10.550381 ], [ -85.3950523, 10.5532077 ], [ -85.3937863, 10.5547687 ], [ -85.3940741, 10.5555404 ], [ -85.3942583, 10.5560344 ], [ -85.3947304, 10.5566039 ], [ -85.3947948, 10.5581438 ], [ -85.3958247, 10.5589032 ], [ -85.3971551, 10.5612236 ], [ -85.3992861, 10.5650829 ] ] ] } },
{ "type": "Feature", "id": "way/463007177", "properties": { "@id": "way/463007177", "addr:city": "Liberia", "addr:street": "Avenida 25 de Julio", "amenity": "restaurant", "building": "yes", "cuisine": "mexican", "name": "Guacamole" }, "geometry": { "type": "Polygon", "coordinates": [ [ [ -85.4368004, 10.6300394 ], [ -85.4367739, 10.6299838 ], [ -85.4366942, 10.6300204 ], [ -85.4367207, 10.6300761 ], [ -85.4368004, 10.6300394 ] ] ] } },
{ "type": "Feature", "id": "way/463007390", "properties": { "@id": "way/463007390", "addr:city": "Liberia", "addr:street": "Calle 8", "amenity": "restaurant", "building": "yes", "cuisine": "regional", "name": "El Callejero" }, "geometry": { "type": "Polygon", "coordinates": [ [ [ -85.4417022, 10.6289746 ], [ -85.4416763, 10.6289134 ], [ -85.4413605, 10.6290427 ], [ -85.4413864, 10.6291038 ], [ -85.4417022, 10.6289746 ] ] ] } },
{ "type": "Feature", "id": "way/463747423", "properties": { "@id": "way/463747423", "addr:city": "Curubandé", "building": "yes", "name": "Hotel Cabañas de Teca", "tourism": "hotel", "wikidata": "Q112020923" }, "geometry": { "type": "Polygon", "coordinates": [ [ [ -85.4800167, 10.6731357 ], [ -85.480157, 10.6730698 ], [ -85.4797911, 10.6726263 ], [ -85.4793784, 10.6728181 ], [ -85.4797301, 10.6732715 ], [ -85.4800167, 10.6731357 ] ] ] } },
{ "type": "Feature", "id": "way/464650892", "properties": { "@id": "way/464650892", "access": "private", "amenity": "parking", "fee": "no", "name": "Plantel de Buses La Pampa", "parking": "surface", "supervised": "yes" }, "geometry": { "type": "Polygon", "coordinates": [ [ [ -85.4354617, 10.6135955 ], [ -85.4368136, 10.6127703 ], [ -85.4365883, 10.6122378 ], [ -85.435819, 10.6126719 ], [ -85.4359371, 10.6128649 ], [ -85.4352454, 10.6132736 ], [ -85.4354617, 10.6135955 ] ] ] } },
{ "type": "Feature", "id": "way/539519018", "properties": { "@id": "way/539519018", "addr:city": "Liberia", "addr:street": "Avenida 1", "building": "yes", "name": "Hotel El Bramadero", "phone": "+506-2660371", "tourism": "hotel" }, "geometry": { "type": "Polygon", "coordinates": [ [ [ -85.4437927, 10.6271906 ], [ -85.4431706, 10.6276446 ], [ -85.4432815, 10.6278122 ], [ -85.4439948, 10.6274851 ], [ -85.4437927, 10.6271906 ] ] ] } },
{ "type": "Feature", "id": "way/626054416", "properties": { "@id": "way/626054416", "addr:city": "Liberia", "addr:street": "Avenida 8", "building": "yes", "name": "Pequeño Mundo", "shop": "department_store" }, "geometry": { "type": "Polygon", "coordinates": [ [ [ -85.4410204, 10.6242223 ], [ -85.4407704, 10.6236227 ], [ -85.4400701, 10.6239193 ], [ -85.4403175, 10.6245096 ], [ -85.4410204, 10.6242223 ] ] ] } },
{ "type": "Feature", "id": "way/743750754", "properties": { "@id": "way/743750754", "addr:city": "Liberia", "addr:street": "Calle 26", "brand": "Walmart", "brand:wikidata": "Q483551", "brand:wikipedia": "en:Walmart", "building": "yes", "name": "Walmart", "shop": "department_store" }, "geometry": { "type": "Polygon", "coordinates": [ [ [ -85.4487773, 10.6264193 ], [ -85.4484785, 10.626013 ], [ -85.4478097, 10.6264883 ], [ -85.4482043, 10.6270247 ], [ -85.4484007, 10.6268851 ], [ -85.4483049, 10.6267549 ], [ -85.4487773, 10.6264193 ] ] ] } },
{ "type": "Feature", "id": "way/914563065", "properties": { "@id": "way/914563065", "addr:city": "Liberia", "amenity": "fast_food", "brand": "Burger King", "brand:wikidata": "Q177054", "brand:wikipedia": "en:Burger King", "building": "yes", "cuisine": "burger", "drive_through": "yes", "name": "Burger King Liberia", "takeaway": "yes", "Juego": "juego" }, "geometry": { "type": "Polygon", "coordinates": [ [ [ -85.4442579, 10.6266129 ], [ -85.4441748, 10.6266538 ], [ -85.444234, 10.6267583 ], [ -85.4443635, 10.6267863 ], [ -85.4442579, 10.6266129 ] ] ] } },
{ "type": "Feature", "id": "way/914564089", "properties": { "@id": "way/914564089", "addr:city": "Liberia", "amenity": "fast_food", "brand": "Papa John's", "brand:wikidata": "Q2759586", "brand:wikipedia": "en:Papa John's Pizza", "building": "yes", "cuisine": "pizza", "name": "Papa John's Liberia", "takeaway": "yes" }, "geometry": { "type": "Polygon", "coordinates": [ [ [ -85.4442171, 10.6268453 ], [ -85.4441675, 10.6268769 ], [ -85.4442158, 10.6269603 ], [ -85.4443133, 10.6269045 ], [ -85.4443488, 10.6268711 ], [ -85.4442171, 10.6268453 ] ] ] } },
{ "type": "Feature", "id": "way/38082843", "properties": { "@id": "way/38082843", "highway": "residential", "lit": "yes", "maxspeed": "30", "name": "Trajanstraße", "sidewalk": "both", "smoothness": "good", "surface": "asphalt" }, "geometry": { "type": "LineString", "coordinates": [ [ 8.6110363, 49.4677048 ], [ 8.6108364, 49.4679542 ], [ 8.61068, 49.4681266 ] ] } },
{ "type": "Feature", "id": "node/447909746", "properties": { "@id": "node/447909746", "highway": "turning_circle" }, "geometry": { "type": "Point", "coordinates": [ 8.61068, 49.4681266 ] } },
{ "type": "Feature", "id": "node/1227383618", "properties": { "@id": "node/1227383618", "addr:city": "Liberia", "amenity": "cinema", "name": "Multicines Liberia", "source": "http://horariodecine.com/ES/cr/index.php?cine=Multicines%20Liberia" }, "geometry": { "type": "Point", "coordinates": [ -85.436755, 10.6181516 ] } },
{ "type": "Feature", "id": "node/1229600981", "properties": { "@id": "node/1229600981", "addr:city": "Liberia", "amenity": "atm", "operator": "ATH Pali", "source": "KG Ground Survey 2015" }, "geometry": { "type": "Point", "coordinates": [ -85.4387593, 10.6309111 ] } },
{ "type": "Feature", "id": "node/5871332085", "properties": { "@id": "node/5871332085", "amenity": "restaurant", "internet_access": "wlan", "name": "María Juana Restobar" }, "geometry": { "type": "Point", "coordinates": [ -85.4362708, 10.6314534 ] } },
{ "type": "Feature", "id": "node/10594234408", "properties": { "@id": "node/10594234408", "amenity": "restaurant", "name": "Los Comales" }, "geometry": { "type": "Point", "coordinates": [ -85.4410784, 10.6287101 ] } }
]
}
