{
"type": "FeatureCollection",
"generator": "overpass-turbo",
"copyright": "The data included in this document is from www.openstreetmap.org. The data is made available under ODbL.",
"timestamp": "2023-11-14T18:23:13Z",
"name": "institucionales",
"features": [
{ "type": "Feature", "id": "way/83715136", "properties": { "@id": "way/83715136", "addr:city": "Liberia", "addr:street": "Calle 13", "amenity": "hospital", "emergency": "yes", "healthcare": "hospital", "name": "Hospital Dr. Enrique Baltodano Briceño", "operator": "CCSS", "operator:type": "public", "Seguro": "Seguro" }, "geometry": { "type": "Polygon", "coordinates": [ [ [ -85.4304176, 10.6371378 ], [ -85.4303696, 10.639834 ], [ -85.4311796, 10.6398427 ], [ -85.4319647, 10.6389273 ], [ -85.4321719, 10.6387421 ], [ -85.4324009, 10.6384746 ], [ -85.432518, 10.6383156 ], [ -85.4326058, 10.6381657 ], [ -85.4326474, 10.6380567 ], [ -85.432658, 10.637946 ], [ -85.432658, 10.6377259 ], [ -85.4326216, 10.6373553 ], [ -85.4325374, 10.6369118 ], [ -85.4315167, 10.6368681 ], [ -85.4310493, 10.6368511 ], [ -85.431047, 10.6371486 ], [ -85.4304176, 10.6371378 ] ] ] } },
{ "type": "Feature", "id": "way/106620878", "properties": { "@id": "way/106620878", "addr:city": "Liberia", "addr:street": "Calle 13", "leisure": "stadium", "name": "Estadio Edgardo Baltodano Briceño", "sport": "soccer", "wikidata": "Q3495574" }, "geometry": { "type": "Polygon", "coordinates": [ [ [ -85.4337645, 10.6369682 ], [ -85.4339201, 10.6368206 ], [ -85.4339791, 10.6367151 ], [ -85.4340113, 10.6366466 ], [ -85.4340328, 10.6365253 ], [ -85.4340971, 10.6354709 ], [ -85.434081, 10.6352705 ], [ -85.4340167, 10.6351071 ], [ -85.4339308, 10.6349805 ], [ -85.4338056, 10.6348677 ], [ -85.4336412, 10.6347855 ], [ -85.4334856, 10.6347327 ], [ -85.4332978, 10.6347222 ], [ -85.4331476, 10.6347697 ], [ -85.4329974, 10.6348698 ], [ -85.4328848, 10.6349805 ], [ -85.4327828, 10.635086 ], [ -85.4327292, 10.6352283 ], [ -85.4327131, 10.6353549 ], [ -85.4326756, 10.6362881 ], [ -85.432697, 10.636578 ], [ -85.4327399, 10.6367415 ], [ -85.4328633, 10.6368996 ], [ -85.4329974, 10.6370051 ], [ -85.4331798, 10.6370736 ], [ -85.4333568, 10.6370947 ], [ -85.4335768, 10.6370631 ], [ -85.4337645, 10.6369682 ] ] ] } },
{ "type": "Feature", "id": "way/106621982", "properties": { "@id": "way/106621982", "landuse": "cemetery", "name": "Cementerio Municipal de Liberia", "religion": "christian" }, "geometry": { "type": "Polygon", "coordinates": [ [ [ -85.4436294, 10.636093 ], [ -85.4432378, 10.6354129 ], [ -85.4429213, 10.6350069 ], [ -85.4425297, 10.6348804 ], [ -85.4424224, 10.6348329 ], [ -85.4421309, 10.6349384 ], [ -85.4415859, 10.6349331 ], [ -85.4413337, 10.6348461 ], [ -85.4405452, 10.6349805 ], [ -85.4403359, 10.6350596 ], [ -85.4412908, 10.6370367 ], [ -85.4436294, 10.636093 ] ] ] } },
{ "type": "Feature", "id": "way/106622922", "properties": { "@id": "way/106622922", "addr:city": "Liberia", "addr:street": "Transversal 8", "building": "yes", "building:levels": "3", "name": "Plaza de Toros Camilo Reyes" }, "geometry": { "type": "Polygon", "coordinates": [ [ [ -85.4461913, 10.6346466 ], [ -85.4463079, 10.6345973 ], [ -85.4463754, 10.6345345 ], [ -85.4464266, 10.6344399 ], [ -85.4464377, 10.6342929 ], [ -85.4464125, 10.6342135 ], [ -85.4463499, 10.6341258 ], [ -85.4462435, 10.6340571 ], [ -85.4460835, 10.6340386 ], [ -85.4460064, 10.6340596 ], [ -85.4459147, 10.6341176 ], [ -85.4458371, 10.6342279 ], [ -85.4458193, 10.6342873 ], [ -85.4458181, 10.6343945 ], [ -85.4458382, 10.6344633 ], [ -85.4458972, 10.6345535 ], [ -85.4459415, 10.6345926 ], [ -85.4460392, 10.6346403 ], [ -85.4461913, 10.6346466 ] ] ] } },
{ "type": "Feature", "id": "way/106733686", "properties": { "@id": "way/106733686", "addr:city": "Liberia", "addr:street": "Calle Central", "amenity": "place_of_worship", "building": "cathedral", "building:levels": "2", "denomination": "catholic", "name": "Catedral de La Inmaculada Concepción de María", "religion": "christian" }, "geometry": { "type": "Polygon", "coordinates": [ [ [ -85.4377778, 10.6300672 ], [ -85.4376439, 10.6297751 ], [ -85.4371656, 10.6299866 ], [ -85.4373029, 10.6302827 ], [ -85.4377778, 10.6300672 ] ] ] } },
{ "type": "Feature", "id": "way/106880285", "properties": { "@id": "way/106880285", "addr:city": "Liberia", "addr:street": "Avenida 25 de Julio", "amenity": "school", "name": "Escuela Ascensión Esquivel Ibarra", "operator": "MEP" }, "geometry": { "type": "Polygon", "coordinates": [ [ [ -85.4373051, 10.6296526 ], [ -85.4371956, 10.6293944 ], [ -85.436962, 10.6288432 ], [ -85.4366442, 10.6289733 ], [ -85.4369872, 10.6297827 ], [ -85.4373051, 10.6296526 ] ] ] } },
{ "type": "Feature", "id": "way/106940193", "properties": { "@id": "way/106940193", "addr:city": "Liberia", "addr:street": "Avenida 3", "amenity": "school", "name": "Escuela Alba Ocampo Alvarado", "operator": "MEP" }, "geometry": { "type": "Polygon", "coordinates": [ [ [ -85.441509, 10.6296179 ], [ -85.4407768, 10.6299631 ], [ -85.4411229, 10.6306721 ], [ -85.4418551, 10.630327 ], [ -85.441509, 10.6296179 ] ] ] } },
{ "type": "Feature", "id": "way/158321640", "properties": { "@id": "way/158321640", "addr:city": "Liberia", "addr:street": "Calle 2", "amenity": "townhall", "building": "yes", "name": "Municipalidad de Liberia", "source": "KG Ground Survey 2015" }, "geometry": { "type": "Polygon", "coordinates": [ [ [ -85.4387417, 10.6307375 ], [ -85.4390352, 10.6306029 ], [ -85.4388585, 10.6302226 ], [ -85.4385454, 10.6303441 ], [ -85.4385905, 10.6304302 ], [ -85.4387417, 10.6307375 ] ] ] } },
{ "type": "Feature", "id": "way/158323950", "properties": { "@id": "way/158323950", "building": "yes", "designation": "Oficinas sucursal Liberia", "name": "Agencia ICE", "office": "telecommunication" }, "geometry": { "type": "Polygon", "coordinates": [ [ [ -85.4425663, 10.6331653 ], [ -85.4427702, 10.6330809 ], [ -85.4428238, 10.6331073 ], [ -85.4429204, 10.6333498 ], [ -85.4433227, 10.6331758 ], [ -85.4432315, 10.6330282 ], [ -85.4431403, 10.6330704 ], [ -85.4430974, 10.6330018 ], [ -85.4428721, 10.6329386 ], [ -85.4428238, 10.6329649 ], [ -85.4426951, 10.632928 ], [ -85.4424966, 10.6330229 ], [ -85.4425663, 10.6331653 ] ] ] } },
{ "type": "Feature", "id": "way/158324405", "properties": { "@id": "way/158324405", "addr:city": "Liberia", "addr:street": "Transversal 8", "amenity": "police", "name": "Delegación Policial Liberia", "operator": "MSP", "Seguro": "Seguro" }, "geometry": { "type": "Polygon", "coordinates": [ [ [ -85.4484696, 10.6343854 ], [ -85.4479949, 10.6342244 ], [ -85.4470508, 10.6339766 ], [ -85.4467842, 10.6349134 ], [ -85.4480902, 10.6356278 ], [ -85.4482949, 10.6354602 ], [ -85.448714, 10.6350584 ], [ -85.4488369, 10.6348381 ], [ -85.4484696, 10.6343854 ] ] ] } },
{ "type": "Feature", "id": "way/316423981", "properties": { "@id": "way/316423981", "addr:city": "Liberia", "addr:street": "Avenida 5", "amenity": "school", "name": "Jardín de Niños Liberia", "operator": "MEP" }, "geometry": { "type": "Polygon", "coordinates": [ [ [ -85.4410214, 10.6306686 ], [ -85.4408304, 10.6302779 ], [ -85.440134, 10.6306019 ], [ -85.4403097, 10.6309835 ], [ -85.4410214, 10.6306686 ] ] ] } },
{ "type": "Feature", "id": "way/380828464", "properties": { "@id": "way/380828464", "addr:city": "Liberia", "addr:street": "Calle Central", "amenity": "bank", "atm": "yes", "brand": "BCR", "brand:wikidata": "Q6951632", "building": "yes", "name": "Banco de Costa Rica", "official_name": "Banco de Costa Rica", "source": "KG Ground Survey 2015" }, "geometry": { "type": "Polygon", "coordinates": [ [ [ -85.4377306, 10.630451 ], [ -85.4379128, 10.6308372 ], [ -85.4381561, 10.6307263 ], [ -85.4380295, 10.6304581 ], [ -85.4379738, 10.6304835 ], [ -85.4379181, 10.6303655 ], [ -85.4377306, 10.630451 ] ] ] } },
{ "type": "Feature", "id": "way/390906212", "properties": { "@id": "way/390906212", "addr:city": "Liberia", "addr:street": "Calle 6", "amenity": "place_of_worship", "building": "yes", "denomination": "catholic", "name": "Iglesia de Los Ángeles", "religion": "christian", "source": "KG Ground Survey 2015" }, "geometry": { "type": "Polygon", "coordinates": [ [ [ -85.4410964, 10.6311462 ], [ -85.4410457, 10.6310433 ], [ -85.4408721, 10.6311261 ], [ -85.4409228, 10.6312289 ], [ -85.4410964, 10.6311462 ] ] ] } },
{ "type": "Feature", "id": "way/431978580", "properties": { "@id": "way/431978580", "addr:city": "Liberia", "addr:street": "Avenida 25 de Julio", "amenity": "place_of_worship", "building": "yes", "denomination": "catholic", "name": "Ermita de La Agonía", "religion": "christian" }, "geometry": { "type": "Polygon", "coordinates": [ [ [ -85.4334055, 10.6315945 ], [ -85.4333334, 10.631452 ], [ -85.4330802, 10.6315757 ], [ -85.4331523, 10.6317182 ], [ -85.4334055, 10.6315945 ] ] ] } },
{ "type": "Feature", "id": "way/445983016", "properties": { "@id": "way/445983016", "addr:city": "Liberia", "addr:street": "Avenida 1", "building": "yes", "country": "CR", "name": "Museo Regional de Guanacaste", "tourism": "museum" }, "geometry": { "type": "Polygon", "coordinates": [ [ [ -85.4397358, 10.6301906 ], [ -85.4395105, 10.6297132 ], [ -85.4389929, 10.6299492 ], [ -85.4392182, 10.6304266 ], [ -85.4397358, 10.6301906 ] ] ] } },
{ "type": "Feature", "id": "way/459839569", "properties": { "@id": "way/459839569", "addr:city": "Liberia", "addr:street": "Calle 4", "amenity": "library", "building": "yes", "name": "Biblioteca Lic. Francisco Mayorga Rivas", "operator": "Municipalidad de Liberia", "operator:type": "public" }, "geometry": { "type": "Polygon", "coordinates": [ [ [ -85.4402031, 10.6298625 ], [ -85.4401382, 10.629729 ], [ -85.4398233, 10.6298768 ], [ -85.4398765, 10.6299863 ], [ -85.4399619, 10.6299462 ], [ -85.4399705, 10.6299637 ], [ -85.4400651, 10.6299192 ], [ -85.4400971, 10.6299851 ], [ -85.440204, 10.6299349 ], [ -85.4401752, 10.6298756 ], [ -85.4402031, 10.6298625 ] ] ] } },
{ "type": "Feature", "id": "way/466697155", "properties": { "@id": "way/466697155", "addr:city": "Liberia", "amenity": "community_centre", "building": "yes", "name": "Salón Comunal" }, "geometry": { "type": "Polygon", "coordinates": [ [ [ -85.4374273, 10.6246283 ], [ -85.4373693, 10.6244904 ], [ -85.4371864, 10.6245647 ], [ -85.4372419, 10.6246967 ], [ -85.4373105, 10.6246688 ], [ -85.43736, 10.6247864 ], [ -85.437412, 10.6247653 ], [ -85.4373651, 10.6246536 ], [ -85.4374273, 10.6246283 ] ] ] } },
{ "type": "Feature", "id": "way/948014646", "properties": { "@id": "way/948014646", "amenity": "place_of_worship", "building": "yes", "denomination": "methodist", "name": "Fuente de Gracia", "religion": "christian" }, "geometry": { "type": "Polygon", "coordinates": [ [ [ -85.4476889, 10.6332986 ], [ -85.4475459, 10.6330445 ], [ -85.4474377, 10.6331032 ], [ -85.4474256, 10.6330817 ], [ -85.44723, 10.633188 ], [ -85.4472604, 10.633242 ], [ -85.4472812, 10.6332383 ], [ -85.4474027, 10.6334541 ], [ -85.4476889, 10.6332986 ] ] ] } },
{ "type": "Feature", "id": "way/1076379146", "properties": { "@id": "way/1076379146", "landuse": "industrial", "name": "Plantel Municipal" }, "geometry": { "type": "Polygon", "coordinates": [ [ [ -85.4446605, 10.6341302 ], [ -85.4448622, 10.6334154 ], [ -85.4441402, 10.6332154 ], [ -85.4439084, 10.6339423 ], [ -85.4446605, 10.6341302 ] ] ] } },
{ "type": "Feature", "id": "way/1219422082", "properties": { "@id": "way/1219422082", "amenity": "place_of_worship", "building": "yes", "name": "Hosanna", "religion": "christian" }, "geometry": { "type": "Polygon", "coordinates": [ [ [ -85.4313673, 10.6360975 ], [ -85.4313834, 10.6358313 ], [ -85.4311876, 10.6358286 ], [ -85.4311823, 10.6360791 ], [ -85.4313673, 10.6360975 ] ] ] } },
{ "type": "Feature", "id": "node/7219827014", "properties": { "@id": "node/7219827014", "addr:city": "Liberia", "addr:street": "Calle 3", "name": "PANI - Oficina Local Liberia", "office": "government" }, "geometry": { "type": "Point", "coordinates": [ -85.4376536, 10.6339057 ] } }
]
}
